*******************************************************************************
JPL/HORIZONS                  4 Vesta (A807 FA)            2025-Nov-13 09:11:30
Rec #:       4 (+COV) Soln.date: 2021-Apr-13_11:15:57   # obs: 9451 (1950-2021)
 
IAU76/J2000 helio. ecliptic osc. elements (au, days, deg., period=Julian yrs):
 
  EPOCH=  2458849.5 ! 2020-Jan-01.00 (TDB)         Residual RMS= .47385
   EC= .08857261385730482  QR= 2.15270823108896    TP= 2458247.8038331456
   OM= 103.8092892453337   W=  150.8357762126256   IN= 7.14181494423702
   A= 2.361908654291772    MA= 163.3754032354997   ADIST= 2.571109077494583
   PER= 3.62997            N= .271524753           ANGMOM= .026333145
   DAN= 2.53982            DDN= 2.17514            L= 254.8345779
   B= 3.4734318            MOID= 1.13987994        TP= 2018-May-09.3038331456
 
Asteroid physical parameters (km, seconds, rotational period in hours):
   GM= 17.28828            RAD= 261.385            ROTPER= 5.342128
   H= 3.25                 G= .320                 B-V= .782
                           ALBEDO= .4228           STYP= V

ASTEROID comments: 
1: soln ref.= JPL#36, OCC=0           radar(2977 delay, 0 Dop
2: source=ORB
*******************************************************************************

  

*******************************************************************************
Ephemeris / WWW_USER Thu Nov 13 09:11:30 2025 Pasadena, USA      / Horizons    
*******************************************************************************
Target body name: 4 Vesta (A807 FA)               {source: JPL#36}
Center body name: Earth (399)                     {source: DE441}
Center-site name: GEOCENTRIC
*******************************************************************************
Start time      : A.D. 1900-Jan-01 00:00:00.0000 UT      
Stop  time      : A.D. 2025-Dec-31 00:00:00.0000 UT      
Step-size       : 10080 minutes
*******************************************************************************
Target pole/equ : IAU                             {East-longitude positive}
Target radii    : 289.0, 280.0, 229.0 km          {Equator_a, b, pole_c}       
Center geodetic : 0.0, 0.0, -6378.137             {E-lon(deg),Lat(deg),Alt(km)}
Center cylindric: 0.0, 0.0, 0.0                   {E-lon(deg),Dxy(km),Dz(km)}
Center pole/equ : ITRF93                          {East-longitude positive}
Center radii    : 6378.137, 6378.137, 6356.752 km {Equator_a, b, pole_c}       
Target primary  : Sun
Vis. interferer : MOON (R_eq= 1737.400) km        {source: DE441}
Rel. light bend : Sun                             {source: DE441}
Rel. lght bnd GM: 1.3271E+11 km^3/s^2                                          
Small-body perts: Yes                             {source: SB441-N16}
Atmos refraction: NO (AIRLESS)
RA format       : HMS
Time format     : CAL 
Calendar mode   : Mixed Julian/Gregorian
EOP file        : eop.251112.p260208                                           
EOP coverage    : DATA-BASED 1962-JAN-20 TO 2025-NOV-12. PREDICTS-> 2026-FEB-07
Units conversion: 1 au= 149597870.700 km, c= 299792.458 km/s, 1 day= 86400.0 s 
Table cut-offs 1: Elevation (-90.0deg=NO ),Airmass (>38.000=NO), Daylight (NO )
Table cut-offs 2: Solar elongation (  0.0,180.0=NO ),Local Hour Angle( 0.0=NO )
Table cut-offs 3: RA/DEC angular rate (     0.0=NO )                           
Table format    : Comma Separated Values (spreadsheet)
*******************************************************************************
Initial IAU76/J2000 heliocentric ecliptic osculating elements (au, days, deg.):
  EPOCH=  2458849.5 ! 2020-Jan-01.00 (TDB)         Residual RMS= .47385        
   EC= .08857261385730482  QR= 2.15270823108896    TP= 2458247.8038331456      
   OM= 103.8092892453337   W=  150.8357762126256   IN= 7.14181494423702        
  Equivalent ICRF heliocentric cartesian coordinates (au, au/d):
   X= 1.243605461680222E+00  Y= 2.133870405923554E+00  Z= 6.874866847781977E-01
  VX=-8.779290950353064E-03 VY= 4.462599423343603E-03 VZ= 2.927653651039283E-03
Asteroid physical parameters (km, seconds, rotational period in hours):        
   GM= 17.28828            RAD= 261.385            ROTPER= 5.342128            
   H= 3.25                 G= .320                 B-V= .782                   
                           ALBEDO= .4228           STYP= V                     
***************************************************************************************************************************************************************************************
 Date__(UT)__HR:MN, , , R.A._(ICRF), DEC__(ICRF),    APmag,  S-brt,             delta,     deldot,     S-O-T,/r,     S-T-O,  Sky_motion, Sky_mot_PA, RelVel-ANG,  Lun_Sky_Brt, sky_SNR,
***************************************************************************************************************************************************************************************
$$SOE
 1918-Feb-11 00:00, , , 01 19 45.56, +02 19 54.7,    8.374,  5.221,  2.92889900444575, 20.3164946,   56.8714,/T,   19.0830,   0.9543327,  63.025540,  31.016436,         n.a.,    n.a.,
 1918-Feb-18 00:00, , , 01 29 28.63, +03 32 12.8,    8.408,  5.203,  3.00898373746466, 19.2847054,   52.5278,/T,   18.0472,   0.9800071,  63.823010,  28.411665,         n.a.,    n.a.,
 1918-Feb-25 00:00, , , 01 39 30.76, +04 44 10.0,    8.435,  5.183,  3.08473757120389, 18.1808456,   48.2749,/T,   16.9398,   1.0015737,  64.603653,  25.954437,         n.a.,    n.a.,
 1918-Mar-04 00:00, , , 01 49 50.19, +05 55 26.0,    8.456,  5.161,  3.15591191660864, 17.0180229,   44.1028,/T,   15.7710,   1.0202847,  65.385873,  23.613145,         n.a.,    n.a.,
 1918-Mar-11 00:00, , , 02 00 25.78, +07 05 42.9,    8.469,  5.136,  3.22224072504495, 15.7799270,   40.0032,/T,   14.5483,   1.0366790,  66.187452,  21.341738,         n.a.,    n.a.,
 1918-Mar-18 00:00, , , 02 11 16.42, +08 14 41.2,    8.476,  5.109,  3.28338805737802, 14.4591246,   35.9727,/T,   13.2790,   1.0502198,  67.013647,  19.126994,         n.a.,    n.a.,
 1918-Mar-25 00:00, , , 02 22 20.61, +09 22 01.0,    8.476,  5.079,  3.33910823487583, 13.1017825,   32.0097,/T,   11.9723,   1.0609887,  67.859768,  17.006712,         n.a.,    n.a.,
 1918-Apr-01 00:00, , , 02 33 37.27, +10 27 25.5,    8.469,  5.045,  3.38929348801824, 11.7196487,   28.1084,/T,   10.6352,   1.0700041,  68.734425,  14.962997,         n.a.,    n.a.,
 1918-Apr-08 00:00, , , 02 45 05.79, +11 30 39.8,    8.456,  5.009,  3.43381318110221, 10.2947743,   24.2634,/T,    9.2732,   1.0776898,  69.647188,  12.955634,         n.a.,    n.a.,
 1918-Apr-15 00:00, , , 02 56 45.45, +12 31 28.4,    8.435,  4.968,  3.47245684429739,  8.8162061,   20.4746,/T,    7.8925,   1.0834630,  70.598061,  10.966007,         n.a.,    n.a.,
 1918-Apr-22 00:00, , , 03 08 35.06, +13 29 35.1,    8.407,  4.923,  3.50508802758741,  7.3270861,   16.7485,/T,    6.5025,   1.0872215,  71.579217,  9.0325722,         n.a.,    n.a.,
 1918-Apr-29 00:00, , , 03 20 33.68, +14 24 47.0,    8.371,  4.873,  3.53170403521008,  5.8390541,   13.0967,/T,    5.1146,   1.0898300,  72.594633,  7.1479251,         n.a.,    n.a.,
 1918-May-06 00:00, , , 03 32 40.74, +15 16 52.6,    8.325,  4.817,  3.55227623537703,  4.3324401,    9.5542,/T,    3.7486,   1.0916524,  73.649468,  5.2750877,         n.a.,    n.a.,
 1918-May-13 00:00, , , 03 44 55.52, +16 05 40.4,    8.271,  4.754,  3.56668688331986,  2.7936969,    6.2524,/T,    2.4616,   1.0920638,  74.740214,  3.3901385,         n.a.,    n.a.,
 1918-May-20 00:00, , , 03 57 16.72, +16 50 59.0,    8.221,  4.698,  3.57487917193547,  1.2629018,    3.8005,/T,    1.4990,   1.0908195,  75.857131,  1.5290981,         n.a.,    n.a.,
 1918-May-27 00:00, , , 04 09 43.22, +17 32 40.1,    8.231,  4.705,  3.57692703751945, -0.2473227,    4.1112,/L,    1.6205,   1.0886648,  77.001102,  -0.306668,         n.a.,    n.a.,
 1918-Jun-03 00:00, , , 04 22 14.19, +18 10 36.8,    8.290,  4.764,  3.57287939122850, -1.7578917,    6.7976,/L,    2.6777,   1.0859385,  78.174210,  -2.152128,         n.a.,    n.a.,
 1918-Jun-10 00:00, , , 04 34 48.67, +18 44 42.6,    8.348,  4.824,  3.56268805568517, -3.2840904,   10.1156,/L,    3.9780,   1.0819531,  79.369906,  -4.037184,         n.a.,    n.a.,
 1918-Jun-17 00:00, , , 04 47 25.03, +19 14 52.8,    8.397,  4.878,  3.54635802360883, -4.7881081,   13.6137,/L,    5.3370,   1.0763425,  80.576885,  -5.929919,         n.a.,    n.a.,
 1918-Jun-24 00:00, , , 05 00 01.78, +19 41 04.8,    8.437,  4.926,  3.52402365204945, -6.2554857,   17.1880,/L,    6.7082,   1.0697378,  81.793631,  -7.821765,         n.a.,    n.a.,
 1918-Jul-01 00:00, , , 05 12 37.75, +20 03 18.1,    8.469,  4.969,  3.49580031525685, -7.7072288,   20.8109,/L,    8.0748,   1.0624670,  83.019811,  -9.745949,         n.a.,    n.a.,
 1918-Jul-08 00:00, , , 05 25 11.58, +20 21 33.3,    8.493,  5.007,  3.46170109750040, -9.1596167,   24.4768,/L,    9.4282,   1.0537421,  84.246103,  -11.74018,         n.a.,    n.a.,
 1918-Jul-15 00:00, , , 05 37 41.28, +20 35 53.4,    8.511,  5.042,  3.42179062662166,-10.5755536,   28.1836,/L,   10.7600,   1.0430695,  85.459888,  -13.77770,         n.a.,    n.a.,
 1918-Jul-22 00:00, , , 05 50 04.93, +20 46 24.0,    8.522,  5.074,  3.37626462385896,-11.9380933,   31.9319,/L,   12.0635,   1.0309517,  86.657811,  -15.84482,         n.a.,    n.a.,
 1918-Jul-29 00:00, , , 06 02 20.96, +20 53 12.5,    8.526,  5.104,  3.32531107099172,-13.2666947,   35.7277,/L,   13.3341,   1.0176927,  87.837575,  -17.97267,         n.a.,    n.a.,
 1918-Aug-05 00:00, , , 06 14 27.64, +20 56 28.2,    8.524,  5.131,  3.26901521400417,-14.5778031,   39.5810,/L,   14.5666,   1.0023463,  88.986999,  -20.20999,         n.a.,    n.a.,
 1918-Aug-12 00:00, , , 06 26 22.54, +20 56 23.8,    8.516,  5.155,  3.20751855691354,-15.8329569,   43.4989,/L,   15.7532,   0.9842451,  90.091904,  -22.53687,         n.a.,    n.a.,
